HULIANWANG DIGUI-17     
1 62977U 25030G   26066.01631727 -.00000091  00000+0  72233-4 0  9999
2 62977  50.0046 242.0145 0000754 162.9435 197.1463 13.29338283 52271
HULIANWANG DIGUI-18     
1 62978U 25030H   26066.23348025 -.00000085  00000+0  83649-4 0  9996
2 62978  50.0050 241.1723 0000795 166.0162 194.0732 13.29338423 52301
HULIANWANG DIGUI-19     
1 62979U 25030J   26066.26668617 -.00000095  00000+0  61650-4 0  9991
2 62979  50.0036 241.3007 0000818 159.7904 200.3001 13.29341551 52308
HULIANWANG DIGUI-20     
1 63687U 25086A   26066.26131730  .00000094  00000+0  18484-3 0  9994
2 63687  86.5124 347.4555 0001777  91.5515 268.5822 13.24420362 41385
HULIANWANG DIGUI-21     
1 63688U 25086B   26066.26880714  .00000089  00000+0  17401-3 0  9990
2 63688  86.5153 347.4828 0001674  94.6202 265.5123 13.24421966 41375
HULIANWANG DIGUI-22     
1 63689U 25086C   26066.27637153  .00000083  00000+0  15839-3 0  9996
2 63689  86.5118 347.3827 0001846  91.5147 268.6199 13.24421715 41379
HULIANWANG DIGUI-23     
1 63690U 25086D   26066.29142809  .00000059  00000+0  10329-3 0  9991
2 63690  86.5160 347.5150 0001765  87.9014 272.2322 13.24422484 41374
HULIANWANG DIGUI-24     
1 63691U 25086E   26066.29904312  .00000059  00000+0  10346-3 0  9996
2 63691  86.5167 347.5392 0001813  92.1654 267.9688 13.24420607 41373
HULIANWANG DIGUI-25     
1 63692U 25086F   26066.30657280  .00000057  00000+0  97763-4 0  9995
2 63692  86.5105 347.3573 0001707  91.2717 268.8612 13.24422005 41378
HULIANWANG DIGUI-26     
1 63693U 25086G   26066.28380169  .00000071  00000+0  13191-3 0  9990
2 63693  86.5154 347.4923 0001805  95.9673 264.1667 13.24421514 41377
HULIANWANG DIGUI-27     
1 63694U 25086H   26066.31420875  .00000068  00000+0  12488-3 0  9998
2 63694  86.5115 347.3894 0001815  91.0060 269.1282 13.24420397 41375
HULIANWANG DIGUI-28     
1 63695U 25086J   26066.25369152  .00000093  00000+0  18306-3 0  9995
2 63695  86.5079 347.3136 0001819  91.1258 269.0084 13.24421679 41360
HULIANWANG DIGUI-29     
1 63696U 25086K   26066.24621689  .00000099  00000+0  19687-3 0  9990
2 63696  86.5107 347.3967 0001700  91.9394 268.1935 13.24420597 41366
HULIANWANG DIGUI-30     
1 64283U 25121A   26066.25358147  .00000031  00000+0  37212-4 0  9991
2 64283  86.4952  47.9464 0001985  77.7354 282.4003 13.24423464 36662
HULIANWANG DIGUI-31     
1 64284U 25121B   26066.24625473  .00000019  00000+0  10677-4 0  9992
2 64284  86.4972  47.9998 0002006  77.9169 282.2190 13.24419678 36665
HULIANWANG DIGUI-32     
1 64285U 25121C   26066.31388310  .00000033  00000+0  42311-4 0  9993
2 64285  86.4914  47.8053 0002000  79.9376 280.1984 13.24425426 36676
