[{"OBJECT_NAME":"HULIANWANG DIGUI-17","OBJECT_ID":"2025-030G","EPOCH":"2026-03-07T00:23:29.812128","MEAN_MOTION":13.29338283,"ECCENTRICITY":7.54e-5,"INCLINATION":50.0046,"RA_OF_ASC_NODE":242.0145,"ARG_OF_PERICENTER":162.9435,"MEAN_ANOMALY":197.1463,"EPHEMERIS_TYPE":0,"CLASSIFICATION_TYPE":"U","NORAD_CAT_ID":62977,"ELEMENT_SET_NO":999,"REV_AT_EPOCH":5227,"BSTAR":7.2232756e-5,"MEAN_MOTION_DOT":-9.1e-7,"MEAN_MOTION_DDOT":0},{"OBJECT_NAME":"HULIANWANG DIGUI-18","OBJECT_ID":"2025-030H","EPOCH":"2026-03-07T05:36:12.693600","MEAN_MOTION":13.29338423,"ECCENTRICITY":7.95e-5,"INCLINATION":50.005,"RA_OF_ASC_NODE":241.1723,"ARG_OF_PERICENTER":166.0162,"MEAN_ANOMALY":194.0732,"EPHEMERIS_TYPE":0,"CLASSIFICATION_TYPE":"U","NORAD_CAT_ID":62978,"ELEMENT_SET_NO":999,"REV_AT_EPOCH":5230,"BSTAR":8.3648737e-5,"MEAN_MOTION_DOT":-8.5e-7,"MEAN_MOTION_DDOT":0},{"OBJECT_NAME":"HULIANWANG DIGUI-19","OBJECT_ID":"2025-030J","EPOCH":"2026-03-07T06:24:01.685088","MEAN_MOTION":13.29341551,"ECCENTRICITY":8.183e-5,"INCLINATION":50.0036,"RA_OF_ASC_NODE":241.3007,"ARG_OF_PERICENTER":159.7904,"MEAN_ANOMALY":200.3001,"EPHEMERIS_TYPE":0,"CLASSIFICATION_TYPE":"U","NORAD_CAT_ID":62979,"ELEMENT_SET_NO":999,"REV_AT_EPOCH":5230,"BSTAR":6.1650342e-5,"MEAN_MOTION_DOT":-9.5e-7,"MEAN_MOTION_DDOT":0},{"OBJECT_NAME":"HULIANWANG DIGUI-20","OBJECT_ID":"2025-086A","EPOCH":"2026-03-07T06:16:17.814720","MEAN_MOTION":13.24420362,"ECCENTRICITY":0.00017776,"INCLINATION":86.5124,"RA_OF_ASC_NODE":347.4555,"ARG_OF_PERICENTER":91.5515,"MEAN_ANOMALY":268.5822,"EPHEMERIS_TYPE":0,"CLASSIFICATION_TYPE":"U","NORAD_CAT_ID":63687,"ELEMENT_SET_NO":999,"REV_AT_EPOCH":4138,"BSTAR":0.00018483585,"MEAN_MOTION_DOT":9.4e-7,"MEAN_MOTION_DDOT":0},{"OBJECT_NAME":"HULIANWANG DIGUI-21","OBJECT_ID":"2025-086B","EPOCH":"2026-03-07T06:27:04.936896","MEAN_MOTION":13.24421966,"ECCENTRICITY":0.00016747,"INCLINATION":86.5153,"RA_OF_ASC_NODE":347.4828,"ARG_OF_PERICENTER":94.6202,"MEAN_ANOMALY":265.5123,"EPHEMERIS_TYPE":0,"CLASSIFICATION_TYPE":"U","NORAD_CAT_ID":63688,"ELEMENT_SET_NO":999,"REV_AT_EPOCH":4137,"BSTAR":0.0001740123,"MEAN_MOTION_DOT":8.9e-7,"MEAN_MOTION_DDOT":0},{"OBJECT_NAME":"HULIANWANG DIGUI-22","OBJECT_ID":"2025-086C","EPOCH":"2026-03-07T06:37:58.500192","MEAN_MOTION":13.24421715,"ECCENTRICITY":0.00018464,"INCLINATION":86.5118,"RA_OF_ASC_NODE":347.3827,"ARG_OF_PERICENTER":91.5147,"MEAN_ANOMALY":268.6199,"EPHEMERIS_TYPE":0,"CLASSIFICATION_TYPE":"U","NORAD_CAT_ID":63689,"ELEMENT_SET_NO":999,"REV_AT_EPOCH":4137,"BSTAR":0.00015838631,"MEAN_MOTION_DOT":8.3e-7,"MEAN_MOTION_DDOT":0},{"OBJECT_NAME":"HULIANWANG DIGUI-23","OBJECT_ID":"2025-086D","EPOCH":"2026-03-07T06:59:39.386976","MEAN_MOTION":13.24422484,"ECCENTRICITY":0.00017658,"INCLINATION":86.516,"RA_OF_ASC_NODE":347.515,"ARG_OF_PERICENTER":87.9014,"MEAN_ANOMALY":272.2322,"EPHEMERIS_TYPE":0,"CLASSIFICATION_TYPE":"U","NORAD_CAT_ID":63690,"ELEMENT_SET_NO":999,"REV_AT_EPOCH":4137,"BSTAR":0.00010329223,"MEAN_MOTION_DOT":5.9e-7,"MEAN_MOTION_DDOT":0},{"OBJECT_NAME":"HULIANWANG DIGUI-24","OBJECT_ID":"2025-086E","EPOCH":"2026-03-07T07:10:37.325568","MEAN_MOTION":13.24420607,"ECCENTRICITY":0.00018131,"INCLINATION":86.5167,"RA_OF_ASC_NODE":347.5392,"ARG_OF_PERICENTER":92.1654,"MEAN_ANOMALY":267.9688,"EPHEMERIS_TYPE":0,"CLASSIFICATION_TYPE":"U","NORAD_CAT_ID":63691,"ELEMENT_SET_NO":999,"REV_AT_EPOCH":4137,"BSTAR":0.00010346462,"MEAN_MOTION_DOT":5.9e-7,"MEAN_MOTION_DDOT":0},{"OBJECT_NAME":"HULIANWANG DIGUI-25","OBJECT_ID":"2025-086F","EPOCH":"2026-03-07T07:21:27.889920","MEAN_MOTION":13.24422005,"ECCENTRICITY":0.00017071,"INCLINATION":86.5105,"RA_OF_ASC_NODE":347.3573,"ARG_OF_PERICENTER":91.2717,"MEAN_ANOMALY":268.8612,"EPHEMERIS_TYPE":0,"CLASSIFICATION_TYPE":"U","NORAD_CAT_ID":63692,"ELEMENT_SET_NO":999,"REV_AT_EPOCH":4137,"BSTAR":9.7763184e-5,"MEAN_MOTION_DOT":5.7e-7,"MEAN_MOTION_DDOT":0},{"OBJECT_NAME":"HULIANWANG DIGUI-26","OBJECT_ID":"2025-086G","EPOCH":"2026-03-07T06:48:40.466016","MEAN_MOTION":13.24421514,"ECCENTRICITY":0.00018056,"INCLINATION":86.5154,"RA_OF_ASC_NODE":347.4923,"ARG_OF_PERICENTER":95.9673,"MEAN_ANOMALY":264.1667,"EPHEMERIS_TYPE":0,"CLASSIFICATION_TYPE":"U","NORAD_CAT_ID":63693,"ELEMENT_SET_NO":999,"REV_AT_EPOCH":4137,"BSTAR":0.00013190989,"MEAN_MOTION_DOT":7.1e-7,"MEAN_MOTION_DDOT":0},{"OBJECT_NAME":"HULIANWANG DIGUI-27","OBJECT_ID":"2025-086H","EPOCH":"2026-03-07T07:32:27.636000","MEAN_MOTION":13.24420397,"ECCENTRICITY":0.00018152,"INCLINATION":86.5115,"RA_OF_ASC_NODE":347.3894,"ARG_OF_PERICENTER":91.006,"MEAN_ANOMALY":269.1282,"EPHEMERIS_TYPE":0,"CLASSIFICATION_TYPE":"U","NORAD_CAT_ID":63694,"ELEMENT_SET_NO":999,"REV_AT_EPOCH":4137,"BSTAR":0.00012487936,"MEAN_MOTION_DOT":6.8e-7,"MEAN_MOTION_DDOT":0},{"OBJECT_NAME":"HULIANWANG DIGUI-28","OBJECT_ID":"2025-086J","EPOCH":"2026-03-07T06:05:18.947328","MEAN_MOTION":13.24421679,"ECCENTRICITY":0.00018193,"INCLINATION":86.5079,"RA_OF_ASC_NODE":347.3136,"ARG_OF_PERICENTER":91.1258,"MEAN_ANOMALY":269.0084,"EPHEMERIS_TYPE":0,"CLASSIFICATION_TYPE":"U","NORAD_CAT_ID":63695,"ELEMENT_SET_NO":999,"REV_AT_EPOCH":4136,"BSTAR":0.00018305554,"MEAN_MOTION_DOT":9.3e-7,"MEAN_MOTION_DDOT":0},{"OBJECT_NAME":"HULIANWANG DIGUI-29","OBJECT_ID":"2025-086K","EPOCH":"2026-03-07T05:54:33.139296","MEAN_MOTION":13.24420597,"ECCENTRICITY":0.00017003,"INCLINATION":86.5107,"RA_OF_ASC_NODE":347.3967,"ARG_OF_PERICENTER":91.9394,"MEAN_ANOMALY":268.1935,"EPHEMERIS_TYPE":0,"CLASSIFICATION_TYPE":"U","NORAD_CAT_ID":63696,"ELEMENT_SET_NO":999,"REV_AT_EPOCH":4136,"BSTAR":0.00019687063,"MEAN_MOTION_DOT":9.9e-7,"MEAN_MOTION_DDOT":0},{"OBJECT_NAME":"HULIANWANG DIGUI-30","OBJECT_ID":"2025-121A","EPOCH":"2026-03-07T06:05:09.439008","MEAN_MOTION":13.24423464,"ECCENTRICITY":0.00019857,"INCLINATION":86.4952,"RA_OF_ASC_NODE":47.9464,"ARG_OF_PERICENTER":77.7354,"MEAN_ANOMALY":282.4003,"EPHEMERIS_TYPE":0,"CLASSIFICATION_TYPE":"U","NORAD_CAT_ID":64283,"ELEMENT_SET_NO":999,"REV_AT_EPOCH":3666,"BSTAR":3.7211603e-5,"MEAN_MOTION_DOT":3.1e-7,"MEAN_MOTION_DDOT":0},{"OBJECT_NAME":"HULIANWANG DIGUI-31","OBJECT_ID":"2025-121B","EPOCH":"2026-03-07T05:54:36.408672","MEAN_MOTION":13.24419678,"ECCENTRICITY":0.0002006,"INCLINATION":86.4972,"RA_OF_ASC_NODE":47.9998,"ARG_OF_PERICENTER":77.9169,"MEAN_ANOMALY":282.219,"EPHEMERIS_TYPE":0,"CLASSIFICATION_TYPE":"U","NORAD_CAT_ID":64284,"ELEMENT_SET_NO":999,"REV_AT_EPOCH":3666,"BSTAR":1.0676848e-5,"MEAN_MOTION_DOT":1.9e-7,"MEAN_MOTION_DDOT":0},{"OBJECT_NAME":"HULIANWANG DIGUI-32","OBJECT_ID":"2025-121C","EPOCH":"2026-03-07T07:31:59.499840","MEAN_MOTION":13.24425426,"ECCENTRICITY":0.00020005,"INCLINATION":86.4914,"RA_OF_ASC_NODE":47.8053,"ARG_OF_PERICENTER":79.9376,"MEAN_ANOMALY":280.1984,"EPHEMERIS_TYPE":0,"CLASSIFICATION_TYPE":"U","NORAD_CAT_ID":64285,"ELEMENT_SET_NO":999,"REV_AT_EPOCH":3667,"BSTAR":4.2310753e-5,"MEAN_MOTION_DOT":3.3e-7,"MEAN_MOTION_DDOT":0}]
